OBJECT_NAME,OBJECT_ID,EPOCH,MEAN_MOTION,ECCENTRICITY,INCLINATION,RA_OF_ASC_NODE,ARG_OF_PERICENTER,MEAN_ANOMALY,EPHEMERIS_TYPE,CLASSIFICATION_TYPE,NORAD_CAT_ID,ELEMENT_SET_NO,REV_AT_EPOCH,BSTAR,MEAN_MOTION_DOT,MEAN_MOTION_DDOT
ZHONGXING-2E,2021-071A,2026-07-11T22:33:17.510400,1.00271746,.00011446,0.0620,236.4706,269.7408,220.0179,0,U,49062,999,1828,0,-.288E-5,0
TJS-7,2021-077A,2026-07-11T19:55:41.027808,1.00269601,.00030386,0.2953,264.1277,108.9522,116.0739,0,U,49115,999,979,0,-.119E-5,0
CHINASAT 9B,2021-080A,2026-07-11T22:28:53.954112,1.00270012,.00021238,0.0247,86.1120,60.9202,221.4461,0,U,49125,999,1789,0,-.309E-5,0
SHIJIAN-21 (SJ-21),2021-094A,2026-07-11T22:47:19.684896,1.00279493,.00517148,5.1690,61.0262,168.9129,169.5546,0,U,49330,999,560,0,-.349E-5,0
SES-17,2021-095A,2026-07-11T05:07:54.501600,1.00271236,.00011057,0.0219,45.8226,94.4892,158.6910,0,U,49332,999,1809,0,-.265E-5,0
SYRACUSE 4A,2021-095B,2026-07-11T10:21:01.822176,1.00266868,.00015893,0.0264,45.4406,64.7984,19.8596,0,U,49333,999,1819,0,0,0
QZS-1R (MICHIBIKI-1R),2021-096A,2026-07-10T14:11:14.485632,1.00246773,.07548364,37.5070,79.2376,272.1562,282.0570,0,U,49336,999,1724,0,-.288E-5,0
ZHONGXING-1D,2021-114A,2026-07-11T19:18:37.080576,1.00270201,.00005126,0.0484,236.7759,27.9236,84.8571,0,U,49505,999,1706,0,-.332E-5,0
STPSAT-6,2021-118A,2026-07-11T16:26:57.983712,1.00269776,.00009737,0.3813,85.1346,237.2541,102.1747,0,U,49817,999,1681,0,-.4E-6,0
EXPRESS AMU-7,2021-123A,2026-07-11T22:47:52.974816,1.00271991,.0000455,0.0245,291.7279,272.4891,212.6010,0,U,50001,999,1678,0,-.239E-5,0
EXPRESS AMU-3,2021-123B,2026-07-11T21:49:11.723808,1.00270008,.00001619,0.0161,357.6267,34.4321,327.9421,0,U,50002,999,727,0,0,0
TIANLIAN 2-02,2021-124A,2026-07-11T17:47:37.770432,1.00270433,.00014803,0.8614,85.7631,163.7665,117.9937,0,U,50005,999,1686,0,-.11E-6,0
TURKSAT 5B,2021-126A,2026-07-11T10:20:01.917600,1.00272499,.00024733,0.0690,339.9573,11.1708,135.2148,0,U,50212,999,1654,0,.152E-5,0
INMARSAT 6-F1,2021-128A,2026-07-11T01:58:49.740960,1.00273125,.00002395,0.0136,327.4277,223.1674,211.8554,0,U,50319,999,1649,0,-.164E-5,0
SHIYAN-12 01 (SY-12 01),2021-129A,2026-07-11T17:00:24.660000,1.00049347,.0002599,3.7350,79.5804,284.7123,220.4704,0,U,50321,999,1674,0,.152E-5,0
SHIYAN-12 02 (SY-12 02),2021-129B,2026-07-11T18:24:20.998944,1.00478973,.0003034,3.7342,79.5798,70.3598,163.6304,0,U,50322,999,1674,0,-.356E-5,0
TJS-9,2021-135A,2026-07-11T21:03:18.562752,1.00273854,.00023216,0.0397,112.1329,315.6863,315.0109,0,U,50574,999,1667,0,-.294E-5,0
GOES 18,2022-021A,2026-07-11T18:02:21.358176,1.00272566,.00006114,0.0131,84.2137,110.7308,228.2976,0,U,51850,999,683,0,.101E-5,0
ZHONGXING-6D,2022-038A,2026-07-10T20:24:44.766432,1.00274385,.00004977,0.0368,245.9029,273.1623,200.9345,0,U,52255,999,1566,0,-.345E-5,0
NILESAT 301,2022-061A,2026-07-11T20:22:10.316928,1.00269155,.00035752,0.0471,346.8347,91.1621,150.3392,0,U,52817,999,1498,0,-.54E-6,0
CMS-02 (GSAT-24),2022-067A,2026-07-11T21:33:26.581248,1.00271858,.00006744,0.0147,97.2036,250.7375,348.2140,0,U,52903,999,1485,0,-.161E-5,0
MEASAT 3D,2022-067B,2026-07-11T00:18:19.730304,1.00281320,.00001275,0.0532,301.4385,111.5907,331.9809,0,U,52904,999,1488,0,-.235E-5,0
SES-22,2022-071A,2026-07-11T18:01:51.405888,1.00270024,.00007818,0.0135,323.7237,140.1722,317.2039,0,U,52933,999,776,0,.109E-5,0
WFOV (USA 332),2022-073A,2026-07-11T17:32:46.692672,1.00269035,.00015319,3.7709,78.2171,214.9625,18.9544,0,U,52940,999,1461,0,-.361E-5,0
TIANLIAN 2-03,2022-078A,2026-07-11T20:40:38.664768,1.00273239,.00009345,0.7323,77.4449,1.1948,171.9044,0,U,53100,999,1479,0,.76E-6,0
SBIRS GEO-6 (USA 336),2022-092A,2026-07-11T21:03:48.515040,1.00270457,.00016468,3.2173,317.8869,154.8464,272.0019,0,U,53355,999,1448,0,-.283E-5,0
EUTELSAT KONNECT VHTS,2022-110A,2026-07-11T13:34:18.013728,1.00268378,.0002698,0.0592,98.6683,345.1136,51.9526,0,U,53765,999,708,0,.22E-6,0
ZHONGXING-1E,2022-112A,2026-07-12T00:12:40.410720,1.00272942,.0000925,0.0618,234.4541,47.3638,92.6391,0,U,53813,999,1409,0,-.146E-5,0
SES-20,2022-123A,2026-07-11T08:10:28.295328,1.00274431,.0001994,0.0158,63.9469,39.3505,205.4723,0,U,53960,999,1377,0,-.95E-6,0
SES-21,2022-123B,2026-07-11T16:21:28.510272,1.00268248,.0000972,0.0391,33.3682,75.9034,294.7571,0,U,53961,999,745,0,0,0
GALAXY 33 (G-33),2022-128A,2026-07-11T16:20:51.069696,1.00270934,.00017635,0.0122,32.2314,86.9299,282.6342,0,U,54026,999,1398,0,.84E-6,0
